{
    "links": {
        "self": "http://www.neowsapp.com/rest/v1/neo/3578626?api_key=iIulBulltgU6a56xZRHN4H3l9WmuAYTsLGpBGhQ2"
    },
    "id": "3578626",
    "neo_reference_id": "3578626",
    "name": "(2011 SO5)",
    "designation": "2011 SO5",
    "nasa_jpl_url": "http://ssd.jpl.nasa.gov/sbdb.cgi?sstr=3578626",
    "absolute_magnitude_h": 25.5,
    "estimated_diameter": {
        "kilometers": {
            "estimated_diameter_min": 0.0211132445,
            "estimated_diameter_max": 0.0472106499
        },
        "meters": {
            "estimated_diameter_min": 21.113244479,
            "estimated_diameter_max": 47.2106498806
        },
        "miles": {
            "estimated_diameter_min": 0.0131191578,
            "estimated_diameter_max": 0.0293353287
        },
        "feet": {
            "estimated_diameter_min": 69.2691770164,
            "estimated_diameter_max": 154.8905885541
        }
    },
    "is_potentially_hazardous_asteroid": false,
    "close_approach_data": [
        {
            "close_approach_date": "2004-09-19",
            "close_approach_date_full": "2004-Sep-19 12:58",
            "epoch_date_close_approach": 1095598680000,
            "relative_velocity": {
                "kilometers_per_second": "5.7203581455",
                "kilometers_per_hour": "20593.2893239241",
                "miles_per_hour": "12795.8691357461"
            },
            "miss_distance": {
                "astronomical": "0.1432176545",
                "lunar": "55.7116676005",
                "kilometers": "21425056.059595915",
                "miles": "13312912.507477027"
            },
            "orbiting_body": "Venus"
        },
        {
            "close_approach_date": "2011-09-29",
            "close_approach_date_full": "2011-Sep-29 18:10",
            "epoch_date_close_approach": 1317319800000,
            "relative_velocity": {
                "kilometers_per_second": "12.0103392993",
                "kilometers_per_hour": "43237.2214774865",
                "miles_per_hour": "26865.9279786082"
            },
            "miss_distance": {
                "astronomical": "0.0142125996",
                "lunar": "5.5287012444",
                "kilometers": "2126174.627322852",
                "miles": "1321143.6511732776"
            },
            "orbiting_body": "Earth"
        },
        {
            "close_approach_date": "2021-08-31",
            "close_approach_date_full": "2021-Aug-31 20:01",
            "epoch_date_close_approach": 1630440060000,
            "relative_velocity": {
                "kilometers_per_second": "13.151533194",
                "kilometers_per_hour": "47345.519498368",
                "miles_per_hour": "29418.6646016387"
            },
            "miss_distance": {
                "astronomical": "0.0445767207",
                "lunar": "17.3403443523",
                "kilometers": "6668582.468304909",
                "miles": "4143665.0015053842"
            },
            "orbiting_body": "Mars"
        },
        {
            "close_approach_date": "2082-08-12",
            "close_approach_date_full": "2082-Aug-12 12:41",
            "epoch_date_close_approach": 3553764060000,
            "relative_velocity": {
                "kilometers_per_second": "14.238602258",
                "kilometers_per_hour": "51258.9681288137",
                "miles_per_hour": "31850.3293909287"
            },
            "miss_distance": {
                "astronomical": "0.091653028",
                "lunar": "35.653027892",
                "kilometers": "13711097.76785036",
                "miles": "8519681.090080568"
            },
            "orbiting_body": "Mars"
        }
    ],
    "orbital_data": {
        "orbit_id": "9",
        "orbit_determination_date": "2017-04-06 08:52:52",
        "first_observation_date": "2011-09-18",
        "last_observation_date": "2011-10-01",
        "data_arc_in_days": 13,
        "observations_used": 37,
        "orbit_uncertainty": "7",
        "minimum_orbit_intersection": ".00773066",
        "jupiter_tisserand_invariant": "3.926",
        "epoch_osculation": "2459000.5",
        "eccentricity": ".5207683215833685",
        "semi_major_axis": "1.776270750310805",
        "inclination": "2.629582471138592",
        "ascending_node_longitude": "178.1665711263945",
        "orbital_period": "864.6934583524941",
        "perihelion_distance": ".8512452129938165",
        "perihelion_argument": "245.4500896922095",
        "aphelion_distance": "2.701296287627794",
        "perihelion_time": "2459330.484394937591",
        "mean_anomaly": "222.6167677920538",
        "mean_motion": ".4163325124326837",
        "equinox": "J2000",
        "orbit_class": {
            "orbit_class_type": "APO",
            "orbit_class_description": "Near-Earth asteroid orbits which cross the Earth’s orbit similar to that of 1862 Apollo",
            "orbit_class_range": "a (semi-major axis) > 1.0 AU; q (perihelion) < 1.017 AU"
        }
    },
    "is_sentry_object": false
}